{"spkid": "50612868", "covariance": {"epoch": "2456629.5", "labels": ["e", "q", "tp", "node", "peri", "i"], "elements": [{"units": null, "title": "eccentricity", "value": ".3124498639111141", "sigma": 2.31835553537404e-07, "name": "e", "label": "e"}, {"label": "q", "sigma": 2.87312652933356e-07, "name": "q", "value": ".9053142283078813", "title": "perihelion distance", "units": "au"}, {"label": "tp", "units": "TDB", "title": "time of perihelion passage", "value": "2456687.333037243201", "sigma": 9.91806911473696e-05, "name": "tp"}, {"units": "deg", "title": "longitude of the ascending node", "value": "33.43711886686832", "name": "om", "sigma": 5.06489184705937e-05, "label": "node"}, {"name": "w", "sigma": 0.000123655336909454, "title": "argument of perihelion", "value": "264.3114144524458", "units": "deg", "label": "peri"}, {"title": "inclination", "value": "5.573451082511875", "units": "deg", "name": "i", "sigma": 1.98408728696439e-05, "label": "i"}], "data": [["5.374772388399468E-14", "-6.660052344222243E-14", "-2.188283737304088E-11", "1.051158662813183E-12", "-2.555266410588857E-11", "2.558559500660652E-12"], ["-6.660052344222243E-14", "8.254856053560287E-14", "2.699407162456489E-11", "-1.312322694031637E-12", "3.157003237102035E-11", "-3.145469093950664E-12"], ["-2.188283737304088E-11", "2.699407162456489E-11", "9.836809496469919E-9", "-3.856820838202259E-10", "1.116333138220422E-8", "-1.210651627372893E-9"], ["1.051158662813183E-12", "-1.312322694031637E-12", "-3.856820838202259E-10", "2.565312942240845E-9", "-2.993270495000537E-9", "-6.481032687506762E-10"], ["-2.555266410588857E-11", "3.157003237102035E-11", "1.116333138220422E-8", "-2.993270495000537E-9", "1.529064234619067E-8", "-6.701261115048803E-10"], ["2.558559500660652E-12", "-3.145469093950664E-12", "-1.210651627372893E-9", "-6.481032687506762E-10", "-6.701261115048803E-10", "3.936602362293699E-10"]]}, "elements": [{"label": "e", "title": "eccentricity", "value": ".3128544819884312", "units": null, "sigma": "2.2827E-7", "name": "e"}, {"sigma": "2.2658E-8", "name": "a", "value": "1.317943007790569", "title": "semi-major axis", "units": "au", "label": "a"}, {"label": "q", "units": "au", "value": ".9056186307979754", "title": "perihelion distance", "name": "q", "sigma": "2.858E-7"}, {"label": "i", "value": "5.579747748045174", "title": "inclination; angle with respect to x-y ecliptic plane", "units": "deg", "sigma": "1.9826E-5", "name": "i"}, {"label": "node", "sigma": "5.0248E-5", "name": "om", "units": "deg", "value": "33.2708981125569", "title": "longitude of the ascending node"}, {"label": "peri", "value": "264.5891793135859", "title": "argument of perihelion", "units": "deg", "name": "w", "sigma": ".00012372"}, {"units": "deg", "value": "60.67011368431051", "title": "mean anomaly", "sigma": "2.0013E-5", "name": "ma", "label": "M"}, {"label": "tp", "title": "time of perihelion passage", "value": "2461107.364407804583", "units": "TDB", "name": "tp", "sigma": "2.8823E-5"}, {"units": "d", "value": "552.641344382728", "title": "sidereal orbital period", "sigma": "1.4252E-5", "name": "per", "label": "period"}, {"label": "n", "units": "deg/d", "title": "mean motion", "value": ".6514170603759325", "name": "n", "sigma": "1.6799E-8"}, {"label": "Q", "sigma": "2.9747E-8", "name": "ad", "title": "aphelion distance", "value": "1.730267384783162", "units": "au"}], "epoch": "2461200.5"}